ONEWEB-0621             
1 55162U 23004Y   24219.89519263  .00000572  00000+0  15773-2 0  9997
2 55162  87.8991 156.3002 0002316  74.3035 285.8349 13.11418267 76774
ONEWEB-0622             
1 55163U 23004Z   24219.90028623  .00000500  00000+0  13742-2 0  9990
2 55163  87.8994 156.3161 0002781  91.7349 268.4097 13.11415353 76760
ONEWEB-0623             
1 55164U 23004AA  24220.14908705  .00000021  00000+0  21774-4 0  9991
2 55164  87.9191 141.1162 0002844  84.3407 275.8049 13.17649317 78167
ONEWEB-0624             
1 55165U 23004AB  24219.76915269 -.00000350  00000+0 -10095-2 0  9990
2 55165  87.8949 125.9619 0002121  77.8600 282.2766 13.12440876 78932
ONEWEB-0625             
1 55166U 23004AC  24219.83403060 -.00000037  00000+0 -12871-3 0  9997
2 55166  87.9189 141.1770 0002025  68.9767 291.1581 13.17647168 78118
ONEWEB-0626             
1 55167U 23004AD  24219.82433401  .00000172  00000+0  40887-3 0  9995
2 55167  87.9190 141.1791 0001807  92.3375 267.7963 13.17648185 78110
ONEWEB-0627             
1 55168U 23004AE  24219.81302973 -.00000093  00000+0 -27311-3 0  9995
2 55168  87.9191 141.1828 0002607  87.3543 272.7887 13.17650134 78111
